DIRECTV 14              
1 40333U 14078B   23346.90779432 -.00000098  00000+0  00000+0 0  9998
2 40333   0.0210 304.1788 0000418 170.8925 193.8629  1.00269760 33043
YAMAL 401               
1 40345U 14082A   23346.80223572 -.00000201  00000+0  00000+0 0  9990
2 40345   0.0166 309.9429 0000313  27.7687 122.3092  1.00271007 32722
ASTRA 2G                
1 40364U 14089A   23347.29125948  .00000176  00000+0  00000+0 0  9990
2 40364   0.0468  26.0322 0001633 351.8830 196.8870  1.00270570 32829
FENGYUN 2G              
1 40367U 14090A   23347.44868368 -.00000275  00000+0  00000+0 0  9993
2 40367   3.3121  83.6875 0000776 280.7205 338.2073  1.00260032 32840
MUOS-3                  
1 40374U 15002A   23347.42588370 -.00000106  00000+0  00000+0 0  9998
2 40374   2.9882  30.8797 0059026 182.7922   6.0559  1.00271428 32629
INMARSAT 5-F2           
1 40384U 15005A   23346.77334417 -.00000257  00000+0  00000+0 0  9997
2 40384   0.0159 331.1647 0000333 145.3133 188.1452  1.00269868 31799
ABS-3A                  
1 40424U 15010A   23346.85531959  .00000001  00000+0  00000+0 0  9993
2 40424   0.0040 359.2517 0001972 158.4809 228.4895  1.00273354 32172
EUTELSAT 115 WEST B     
1 40425U 15010B   23345.47368399  .00000005  00000+0  00000+0 0  9991
2 40425   0.0087 151.8942 0000352  94.0836 249.5894  1.00274552 32183
EXPRESS-AM7             
1 40505U 15012A   23345.91160361  .00000180  00000+0  00000+0 0  9994
2 40505   0.0219  56.6823 0002859 209.8390 182.0473  1.00274222 31800
IRNSS-1D                
1 40547U 15018A   23346.68243870 -.00000252  00000+0  00000+0 0  9999
2 40547  27.8683 255.9441 0017396 182.6021   0.0263  1.00267546 32043
BEIDOU-3S IGSO-1S       
1 40549U 15019A   23346.87437758 -.00000176  00000+0  00000+0 0  9998
2 40549  50.9233 306.4013 0036027 196.0725 347.5845  1.00290232 31875
THOR 7                  
1 40613U 15022A   23347.36021469  .00000017  00000+0  00000+0 0  9990
2 40613   0.0147  62.7506 0002371 196.0305 312.0447  1.00270903 31615
TURKMENALEM52E/MONACOSAT
1 40617U 15023A   23345.43377963  .00000134  00000+0  00000+0 0  9994
2 40617   0.0456 104.6494 0002672 157.1073  26.3310  1.00273005 31630
DIRECTV 15              
1 40663U 15026A   23347.50715000 -.00000077  00000+0  00000+0 0  9993
2 40663   0.0133  37.3634 0000521 102.7730  21.5204  1.00267973 31342
SKY MEXICO-1            
1 40664U 15026B   23346.91188439 -.00000207  00000+0  00000+0 0  9993
2 40664   0.0380  95.3209 0002094 172.3606  63.1903  1.00272249 31251
METEOSAT-11 (MSG-4)     
1 40732U 15034A   23346.85775623  .00000089  00000+0  00000+0 0  9995
2 40732   0.9478  61.5236 0002278 216.7393 121.0572  1.00274633 30815
STAR ONE C4             
1 40733U 15034B   23346.26901411 -.00000236  00000+0  00000+0 0  9992
2 40733   0.0271  22.3669 0001819 276.5499 168.6331  1.00269405 30826
WGS F7 (USA 263)        
1 40746U 15036A   23347.49263134  .00000042  00000+0  00000+0 0  9991
2 40746   0.0045 358.7742 0000088 235.4830 200.0183  1.00268426 30678
INTELSAT 34 (IS-34)     
1 40874U 15039A   23347.05977459 -.00000259  00000+0  00000+0 0  9991
2 40874   0.0165   2.8965 0000764 347.3544  57.2816  1.00270476 30429
EUTELSAT 8 WEST B       
1 40875U 15039B   23346.85436235 -.00000038  00000+0  00000+0 0  9996
2 40875   0.0651 352.3481 0003517 281.5695 106.9498  1.00271527 30449
GSAT-6                  
1 40880U 15041A   23347.44537681 -.00000135  00000+0  00000+0 0  9996
2 40880   0.0053  32.6791 0003864 216.8055  75.2515  1.00270331 30393
INMARSAT 5-F3           
1 40882U 15042A   23345.58598715  .00000080  00000+0  00000+0 0  9995
2 40882   0.0243 358.9868 0000650  22.6681  88.9197  1.00270526 30341
MUOS-4                  
1 40887U 15044A   23346.87098369 -.00000069  00000+0  00000+0 0  9993
2 40887   2.8779  27.1673 0052536 355.7890  86.9460  1.00271708 30367
TJS-1                   
1 40892U 15046A   23346.88673481 -.00000129  00000+0  00000+0 0  9993
2 40892   0.0580  64.5145 0007892 271.4403 219.5908  1.00271137 30368
EXPRESS-AM8             
1 40895U 15048A   23347.06716082 -.00000084  00000+0  00000+0 0  9994
2 40895   0.0150 296.4089 0000497 247.3365 267.9518  1.00274717 30181
BEIDOU-3S IGSO-2S       
1 40938U 15053A   23347.20624247 -.00000122  00000+0  00000+0 0  9998
2 40938  50.6537 269.5894 0045977 193.6784 147.6221  1.00260002 30158
SKY MUSTER 1 (NBN1A)    
1 40940U 15054A   23346.88386307 -.00000252  00000+0  00000+0 0  9991
2 40940   0.0170 323.1102 0001587 293.7200 282.9308  1.00269873 30060
ARSAT 2                 
1 40941U 15054B   23346.91144927 -.00000197  00000+0  00000+0 0  9994
2 40941   0.0389  61.1667 0001584 195.5595  71.7548  1.00270711 30110
MORELOS 3               
1 40946U 15056A   23346.69015043 -.00000016  00000+0  00000+0 0  9992
2 40946   3.1353 346.6720 0000897 332.8163 257.0192  1.00273127 30088
APSTAR 9                
1 40982U 15059A   23346.23951340 -.00000237  00000+0  00000+0 0  9999
2 40982   0.0539  94.3895 0002401 146.6197  67.9119  1.00269678 29925
TURKSAT 4B              
1 40984U 15060A   23347.43885010  .00000141  00000+0  00000+0 0  9999
2 40984   0.0174 359.7947 0002517 259.5215  30.5029  1.00269878 29895
CHINASAT 2C (ZX 2C)     
1 41021U 15063A   23347.09136819 -.00000297  00000+0  00000+0 0  9996
2 41021   0.0322 251.6132 0002238 123.5517 202.6738  1.00273025 29814
GSAT-15                 
1 41028U 15065A   23347.44755237 -.00000233  00000+0  00000+0 0  9995
2 41028   0.0716 271.9878 0002613 306.8483 117.6958  1.00271369 29677
BADR-7 (ARABSAT-6B)     
1 41029U 15065B   23347.33174226  .00000170  00000+0  00000+0 0  9996
2 41029   0.0405 234.2674 0006052  11.4124 341.5046  1.00271029 29715
LAOSAT 1                
1 41034U 15067A   23346.95313317 -.00000316  00000+0  00000+0 0  9990
2 41034   0.0574 142.0919 0001899  79.3624 331.5618  1.00267961 29644
TELSTAR 12V             
1 41036U 15068A   23346.04771801 -.00000089  00000+0  00000+0 0  9996
2 41036   0.0213  59.3646 0002140 208.1637 175.1706  1.00271468 29422
ELEKTRO-L 2             
1 41105U 15074A   23347.42605775 -.00000094  00000+0  00000+0 0  9995
2 41105   4.3642  81.6985 0003337 179.5922 319.4173  1.00270269 29321
COSMOS 2513             
1 41121U 15075A   23346.15562346 -.00000109  00000+0  00000+0 0  9996
2 41121   0.0789 102.8816 0002866 172.0515 301.9631  1.00270195 29328
EXPRESS-AMU1            
1 41191U 15082A   23347.07796236  .00000182  00000+0  00000+0 0  9990
2 41191   0.0164 330.1851 0002558 296.5945 238.8980  1.00270671 29317
GAOFEN-4                
1 41194U 15083A   23347.44998902 -.00000309  00000+0  00000+0 0  9991
2 41194   0.0518  70.3019 0003356 146.8784 132.4063  1.00271351 29291
BELINTERSAT-1           
1 41238U 16001A   23347.43919819  .00000132  00000+0  00000+0 0  9993
2 41238   0.0178 274.1742 0001992 323.5166  53.7894  1.00274063 29033
IRNSS-1E                
1 41241U 16003A   23346.66343443 -.00000296  00000+0  00000+0 0  9999
2 41241  31.2059  76.2995 0021669 183.8772 171.5457  1.00277306 28873
EUTELSAT 9B             
1 41310U 16005A   23346.85775623  .00000089  00000+0  00000+0 0  9997
2 41310   0.0433  58.7783 0004878 198.5138 141.8145  1.00271880 28912
SES-9                   
1 41380U 16013A   23345.90882760 -.00000315  00000+0  00000+0 0  9992
2 41380   0.0180 312.8587 0000362 185.3786  17.5959  1.00270534 28547
EUTELSAT 65 WEST A      
1 41382U 16014A   23346.91458209 -.00000249  00000+0  00000+0 0  9990
2 41382   0.0513  13.3469 0001849 247.5637  84.5180  1.00271813 28347
IRNSS-1F                
1 41384U 16015A   23347.22042295  .00000184  00000+0  00000+0 0  9999
2 41384   3.1458 125.2467 0022092 179.2146 248.9625  1.00265736 28461
BEIDOU-2 IGSO-6         
1 41434U 16021A   23346.15156466 -.00000159  00000+0  00000+0 0  9992
2 41434  58.8940  47.2606 0050064 222.9148 320.3078  1.00263444 28276
IRNSS-1G                
1 41469U 16027A   23346.88168750 -.00000309  00000+0  00000+0 0  9992
2 41469   3.0314 126.7215 0002109 244.5809 156.9415  1.00267913 27981
JCSAT-2B                
1 41471U 16028A   23346.24702084 -.00000137  00000+0  00000+0 0  9999
2 41471   0.0177 358.8912 0000757 269.1738  55.5650  1.00269798 27912
THAICOM 8               
1 41552U 16031A   23347.44459361 -.00000096  00000+0  00000+0 0  9997
2 41552   0.0631  43.0543 0002064 262.8400  14.5539  1.00270991 27591
INTELSAT 31 (IS-31)     
1 41581U 16035A   23345.99499774 -.00000121  00000+0  00000+0 0  9992
2 41581   0.0181   9.1756 0001979 162.1520 172.2484  1.00270537 27486
BEIDOU-2 G7             
1 41586U 16037A   23346.87794552 -.00000327  00000+0  00000+0 0  9997
2 41586   1.4607  66.2336 0009289 314.6801 126.9905  1.00267122 27597
ABS-2A (MONGOLSAT-1)    
1 41588U 16038A   23345.85119068 -.00000054  00000+0  00000+0 0  9997
2 41588   0.0092 322.1500 0001595 234.0741 265.2441  1.00270169 27507
EUTELSAT 117 WEST B     
1 41589U 16038B   23346.37879187  .00000018  00000+0  00000+0 0  9990
2 41589   0.0109 154.0893 0000265 107.9642 198.1221  1.00270066 27466
BRISAT                  
1 41591U 16039A   23346.38188582 -.00000168  00000+0  00000+0 0  9994
2 41591   0.0265 328.0024 0001844 286.2831 114.5066  1.00269283 27408
ECHOSTAR 18             
1 41592U 16039B   23346.31299347 -.00000253  00000+0  00000+0 0  9995
2 41592   0.0172 330.9998 0001185 292.9574 228.1350  1.00270472 27426
MUOS-5                  
1 41622U 16041A   23346.97850819 -.00000081  00000+0  00000+0 0  9990
2 41622   4.3280 297.5343 0197156 250.1562 140.9652  1.00272408 27872
TIANTONG-1 1            
1 41725U 16048A   23347.09093307 -.00000294  00000+0  00000+0 0  9992
2 41725   2.4341  22.8432 0007161 297.1003 255.7642  1.00271359 27067
JCSAT-16                
1 41729U 16050A   23346.95623038 -.00000224  00000+0  00000+0 0  9996
2 41729   0.0428  84.7239 0001250 359.9457 124.9052  1.00272101 26861
USA 271                 
1 41745U 16052B   23344.13867425  .00000157  00000+0  00000+0 0  9998
2 41745   1.7989  88.9144 0003269 185.4881 237.1227  1.00185332  9518
